#aV2006  9  2  0  0   .00000000      96 DD+AD WGS84 FIT  NGA
## 1390 518400.00000000   900.00000000 53980  .0000000000000
+   29     1  2  3  4  5  6  7  8  9 10 11 13 14 15 16 17 18
+         19 20 21 22 23 24 25 26 27 28 29 30  0  0  0  0  0
+          0  0  0  0  0  0  0  0  0  0  0  0  0  0  0  0  0
+          0  0  0  0  0  0  0  0  0  0  0  0  0  0  0  0  0
+          0  0  0  0  0  0  0  0  0  0  0  0  0  0  0  0  0
++         0  0  0  0  0  0  0  0  0  0  0  0  0  0  0  0  0
++         0  0  0  0  0  0  0  0  0  0  0  0  0  0  0  0  0
++         0  0  0  0  0  0  0  0  0  0  0  0  0  0  0  0  0
++         0  0  0  0  0  0  0  0  0  0  0  0  0  0  0  0  0
++         0  0  0  0  0  0  0  0  0  0  0  0  0  0  0  0  0
%c cc cc ccc ccc cccc cccc cccc cccc ccccc ccccc ccccc ccccc
%c cc cc ccc ccc cccc cccc cccc cccc ccccc ccccc ccccc ccccc
%f  0.0000000  0.000000000  0.00000000000  0.000000000000000
%f  0.0000000  0.000000000  0.00000000000  0.000000000000000
%i    0    0    0    0      0      0      0      0         0
%i    0    0    0    0      0      0      0      0         0
/*      NGA, ST. LOUIS,MO.                                  
/*   EPHEMERIS COMPUTED FROM  3 DAYS OF DATA                
/* CCCCCCCCCCCCCCCCCCCCCCCCCCCCCCCCCCCCCCCCCCCCCCCCCCCCCCCCC
/* CCCCCCCCCCCCCCCCCCCCCCCCCCCCCCCCCCCCCCCCCCCCCCCCCCCCCCCCC
*  2006  9  2 15 15   .00000000                                                 
P  1  -2523.561203 -14478.800546  22320.042959     74.399393                    
V  1  27450.711112  -4283.655600    267.657942       .022157                    
P  2  10933.673177  22402.660814   9247.368156     30.738428                    
V  2 -10039.245860  -7186.989670  28308.612536       .039358                    
P  3  -8505.413597 -14016.467742 -21106.248032     28.258883                    
V  3  25266.439546  -7997.242213  -4591.696519       .614562                    
P  4  -1136.730833  19000.875803  18337.856369    303.786814                    
V  4 -16665.706332 -16721.708754  16606.432443       .061261                    
P  5  14442.954183   6233.687416  21194.984688    327.810319                    
V  5  -6905.281905  26614.198523  -2928.638326       .160478                    
P  6  25650.977020  -6895.048123  -1138.241784    598.505759                    
V  6   2461.066843   3141.292976  31058.232485      -.017106                    
P  7   9917.771760 -16399.651404 -18089.860977    530.834890                    
V  7  23423.940593  -4162.977799  16212.307729      -.036117                    
P  8  -8913.604162  12502.994713 -21765.756590    -78.229137                    
V  8 -17562.082647 -20929.450369  -5273.786312      -.013593                    
P  9  20736.268649  15216.490159   6569.579348     34.467986                    
V  9   4357.135127   8313.729384 -30129.496031       .015467                    
P 10   3317.189026  21359.683593 -15318.796083     89.055327                    
V 10  -8437.856577  17549.746408  23084.990249       .005523                    
P 11 -23003.036710 -10674.886959   8253.210797    348.215839                    
V 11  -5414.753286 -10071.626205 -27610.623828       .020232                    
P 13 -25617.387725   6319.053877  -2936.037053     90.839811                    
V 13  -3857.492429  -1176.636782  32191.142373       .033103                    
P 14  14360.872012 -14244.765518  17244.943899     -6.312799                    
V 14  21600.655243  -2702.818990 -20366.816020       .007035                    
P 15   8684.114766 -13456.860761 -21261.821306    622.395644                    
V 15  16754.564059  20895.308076  -6844.280453      -.555029                    
P 16   -265.658945 -23759.730898 -11666.748810     69.735112                    
V 16   7255.478905 -13325.836248  26906.457932       .032233                    
P 17 -14834.649604  14632.145147  16407.522507     96.886181                    
V 17 -20862.984365   2147.422985 -20873.147792      -.009904                    
P 18  16669.358695 -14005.980709 -14869.389607   -247.948119                    
V 18  -4728.794307  18788.732943 -23137.016838      -.009563                    
P 19 -18434.122557  -9293.445894 -16642.092722     12.452835                    
V 19  20870.326169  -4721.375429 -20281.319745       .030449                    
P 20 -15511.768268  -1218.957147  21433.942862    -22.799536                    
V 20   8145.779046 -26211.722988   4410.840742       .002560                    
P 21  15114.212144  -5713.527412 -21066.266634     50.596332                    
V 21  16709.043987  21130.441484   5689.347528       .019187                    
P 22  11860.904602 -23493.131813  -3328.250607    130.828631                    
V 22   1176.111123   5228.421820 -31254.405634       .032067                    
P 23 -25216.246573   -891.211601   8500.607107    137.768169                    
V 23  10208.496180  -4323.817996  29321.824566       .000597                    
P 24  -7389.475604  14573.142955  21122.983197     33.084785                    
V 24 -17002.445092 -20144.749108   8318.883812       .028198                    
P 25  -6037.858825 -20867.400148  15580.635878    312.460742                    
V 25  15349.313514  11636.585901  22242.772635       .141371                    
P 26  17344.605664   9336.143954 -18494.728151   -239.052481                    
V 26 -21955.047357   4370.633657 -18242.129449      -.143845                    
P 27 -16041.680974   3974.989350 -20249.999499     65.879052                    
V 27 -18415.606567 -19814.977615  10087.152880       .018178                    
P 28 -13121.360248  21647.726520  -7127.375487     19.605841                    
V 28    418.194817  -9983.210485 -30204.647901      -.007979                    
P 29  14567.063359  10199.956017 -19600.568693     -6.151559                    
V 29 -24537.692470   5889.094222 -14710.956936      -.511966                    
P 30  16556.060712  -8946.101628  18404.384353      8.778594                    
V 30  -5163.169301  23578.076905  15969.436857       .012240                    
EOF
